[{"OBJECT_NAME":"STARLINK-4300","OBJECT_ID":"2022-083AT","EPOCH":"2026-03-09T11:11:27.442176","MEAN_MOTION":15.08844016,"ECCENTRICITY":0.00012528,"INCLINATION":53.2153,"RA_OF_ASC_NODE":140.1125,"ARG_OF_PERICENTER":83.9868,"MEAN_ANOMALY":276.1267,"EPHEMERIS_TYPE":0,"CLASSIFICATION_TYPE":"U","NORAD_CAT_ID":53173,"ELEMENT_SET_NO":999,"REV_AT_EPOCH":20166,"BSTAR":7.551612e-6,"MEAN_MOTION_DOT":-1.68e-6,"MEAN_MOTION_DDOT":0},{"OBJECT_NAME":"YUNYAO-1 46","OBJECT_ID":"2025-059D","EPOCH":"2026-03-09T22:34:36.342624","MEAN_MOTION":15.10325082,"ECCENTRICITY":0.00132847,"INCLINATION":97.6091,"RA_OF_ASC_NODE":250.9055,"ARG_OF_PERICENTER":123.8801,"MEAN_ANOMALY":236.3694,"EPHEMERIS_TYPE":0,"CLASSIFICATION_TYPE":"U","NORAD_CAT_ID":63347,"ELEMENT_SET_NO":999,"REV_AT_EPOCH":5331,"BSTAR":0.0002771923,"MEAN_MOTION_DOT":4.488e-5,"MEAN_MOTION_DDOT":0}]
